STARLINK-30438          
1 58035U 23156H   26068.25832828 -.00000398  00000+0 -13244-5 0  9998
2 58035  53.1606  80.1118 0001159  78.5335 281.5796 15.30193853136208
2025-313BC              
1 67298U 25313BC  26068.18968176  .00075331  00000+0  26410-2 0  9997
2 67298  97.3985 144.8110 0008478 328.9209  31.1528 15.29126358  7890
